[{"OBJECT_NAME":"JILIN-1 GAOFEN 03D50","OBJECT_ID":"2022-167J","EPOCH":"2026-03-09T22:35:59.947584","MEAN_MOTION":15.32279726,"ECCENTRICITY":0.00065764,"INCLINATION":97.6731,"RA_OF_ASC_NODE":232.9458,"ARG_OF_PERICENTER":101.1473,"MEAN_ANOMALY":259.0507,"EPHEMERIS_TYPE":0,"CLASSIFICATION_TYPE":"U","NORAD_CAT_ID":54690,"ELEMENT_SET_NO":999,"REV_AT_EPOCH":18014,"BSTAR":0.00049467973,"MEAN_MOTION_DOT":0.00015359,"MEAN_MOTION_DDOT":0},{"OBJECT_NAME":"STARLINK-34392","OBJECT_ID":"2025-130P","EPOCH":"2026-03-09T11:00:16.044192","MEAN_MOTION":15.30191197,"ECCENTRICITY":0.00013373,"INCLINATION":53.1595,"RA_OF_ASC_NODE":89.8922,"ARG_OF_PERICENTER":93.8643,"MEAN_ANOMALY":266.2511,"EPHEMERIS_TYPE":0,"CLASSIFICATION_TYPE":"U","NORAD_CAT_ID":64451,"ELEMENT_SET_NO":999,"REV_AT_EPOCH":4066,"BSTAR":0.0012063987,"MEAN_MOTION_DOT":0.00035532,"MEAN_MOTION_DDOT":0}]
